{"type": "FeatureCollection", "features": [ {"type": "Feature", "properties": {"norad_id": 39574, "name": "GPM-CORE", "group": "resource", "lat": -33.5694534882008, "lon": -155.21928674384887, "alt_km": 430.92273345876765, "timestamp": "2025-12-09T16:56:36.237121+00:00", "meta": {"OBJECT_NAME": "GPM-CORE", "OBJECT_ID": "2014-009C", "EPOCH": "2025-12-09T09:20:25.092384", "MEAN_MOTION": 15.45442033, "ECCENTRICITY": 0.0010516, "INCLINATION": 64.9737, "RA_OF_ASC_NODE": 223.9046, "ARG_OF_PERICENTER": 269.9223, "MEAN_ANOMALY": 90.0712, "EPHEMERIS_TYPE": 0, "CLASSIFICATION_TYPE": "U", "NORAD_CAT_ID": 39574, "ELEMENT_SET_NO": 999, "REV_AT_EPOCH": 66849, "BSTAR": 0.00039282, "MEAN_MOTION_DOT": 0.00018741, "MEAN_MOTION_DDOT": 0}, "tle": {"line1": "1 39574U 14009C   25343.38917931  .00018741  00000+0  39282-3 0  9997", "line2": "2 39574  64.9737 223.9046 0010516 269.9223  90.0712 15.45442033668491"}}, "geometry": {"type": "Point", "coordinates": [-155.21928674384887, -33.5694534882008]}}, {"type": "Feature", "properties": {"norad_id": 39634, "name": "SENTINEL-1A", "group": "resource", "lat": 36.151405105726994, "lon": -17.040356933331672, "alt_km": 692.6240191910683, "timestamp": "2025-12-09T16:56:36.237132+00:00", "meta": {"OBJECT_NAME": "SENTINEL-1A", "OBJECT_ID": "2014-016A", "EPOCH": "2025-12-09T11:50:21.051744", "MEAN_MOTION": 14.59201485, "ECCENTRICITY": 0.0001257, "INCLINATION": 98.1799, "RA_OF_ASC_NODE": 348.7823, "ARG_OF_PERICENTER": 83.2662, "MEAN_ANOMALY": 276.8681, "EPHEMERIS_TYPE": 0, "CLASSIFICATION_TYPE": "U", "NORAD_CAT_ID": 39634, "ELEMENT_SET_NO": 999, "REV_AT_EPOCH": 62235, "BSTAR": 0.00011952, "MEAN_MOTION_DOT": 5.18e-06, "MEAN_MOTION_DDOT": 0}, "tle": {"line1": "1 39634U 14016A   25343.49329921  .00000518  00000+0  11952-3 0  9997", "line2": "2 39634  98.1799 348.7823 0001257  83.2662 276.8681 14.59201485622352"}}, "geometry": {"type": "Point", "coordinates": [-17.040356933331672, 36.151405105726994]}}, {"type": "Feature", "properties": {"norad_id": 39731, "name": "KAZEOSAT 1", "group": "resource", "lat": -18.007413713557103, "lon": -127.05292376309383, "alt_km": 756.8716057417378, "timestamp": "2025-12-09T16:56:36.237142+00:00", "meta": {"OBJECT_NAME": "KAZEOSAT 1", "OBJECT_ID": "2014-024A", "EPOCH": "2025-12-09T11:01:55.183872", "MEAN_MOTION": 14.42060191, "ECCENTRICITY": 0.0001089, "INCLINATION": 98.3434, "RA_OF_ASC_NODE": 55.4406, "ARG_OF_PERICENTER": 94.04, "MEAN_ANOMALY": 266.0914, "EPHEMERIS_TYPE": 0, "CLASSIFICATION_TYPE": "U", "NORAD_CAT_ID": 39731, "ELEMENT_SET_NO": 999, "REV_AT_EPOCH": 61121, "BSTAR": 0.00018178, "MEAN_MOTION_DOT": 5.54e-06, "MEAN_MOTION_DDOT": 0}, "tle": {"line1": "1 39731U 14024A   25343.45966648  .00000554  00000+0  18178-3 0  9990", "line2": "2 39731  98.3434  55.4406 0001089  94.0400 266.0914 14.42060191611212"}}, "geometry": {"type": "Point", "coordinates": [-127.05292376309383, -18.007413713557103]}}, {"type": "Feature", "properties": {"norad_id": 39766, "name": "ALOS-2", "group": "resource", "lat": 33.874418527691105, "lon": 73.23124918741209, "alt_km": 628.4474690590923, "timestamp": "2025-12-09T16:56:36.237153+00:00", "meta": {"OBJECT_NAME": "ALOS-2", "OBJECT_ID": "2014-029A", "EPOCH": "2025-12-09T11:55:10.278336", "MEAN_MOTION": 14.79462474, "ECCENTRICITY": 0.0001515, "INCLINATION": 97.9228, "RA_OF_ASC_NODE": 78.3893, "ARG_OF_PERICENTER": 100.318, "MEAN_ANOMALY": 259.8202, "EPHEMERIS_TYPE": 0, "CLASSIFICATION_TYPE": "U", "NORAD_CAT_ID": 39766, "ELEMENT_SET_NO": 999, "REV_AT_EPOCH": 62353, "BSTAR": 0.00060743, "MEAN_MOTION_DOT": 4.487e-05, "MEAN_MOTION_DDOT": 0}, "tle": {"line1": "1 39766U 14029A   25343.49664674  .00004487  00000+0  60743-3 0  9995", "line2": "2 39766  97.9228  78.3893 0001515 100.3180 259.8202 14.79462474623538"}}, "geometry": {"type": "Point", "coordinates": [73.23124918741209, 33.874418527691105]}}, {"type": "Feature", "properties": {"norad_id": 40010, "name": "KAZEOSAT 2", "group": "resource", "lat": -61.59049804307075, "lon": -6.017130673329875, "alt_km": 615.4821089845063, "timestamp": "2025-12-09T16:56:36.237163+00:00", "meta": {"OBJECT_NAME": "KAZEOSAT 2", "OBJECT_ID": "2014-033A", "EPOCH": "2025-12-09T12:37:14.894112", "MEAN_MOTION": 14.85159236, "ECCENTRICITY": 0.0007539, "INCLINATION": 97.5501, "RA_OF_ASC_NODE": 188.0058, "ARG_OF_PERICENTER": 218.4025, "MEAN_ANOMALY": 141.6655, "EPHEMERIS_TYPE": 0, "CLASSIFICATION_TYPE": "U", "NORAD_CAT_ID": 40010, "ELEMENT_SET_NO": 999, "REV_AT_EPOCH": 62080, "BSTAR": 0.00015423, "MEAN_MOTION_DOT": 1.271e-05, "MEAN_MOTION_DDOT": 0}, "tle": {"line1": "1 40010U 14033A   25343.52586683  .00001271  00000+0  15423-3 0  9994", "line2": "2 40010  97.5501 188.0058 0007539 218.4025 141.6655 14.85159236620808"}}, "geometry": {"type": "Point", "coordinates": [-6.017130673329875, -61.59049804307075]}}, {"type": "Feature", "properties": {"norad_id": 40011, "name": "HODOYOSHI-4", "group": "resource", "lat": -54.08323044688111, "lon": -176.72209451460344, "alt_km": 614.0641088770781, "timestamp": "2025-12-09T16:56:36.237174+00:00", "meta": {"OBJECT_NAME": "HODOYOSHI-4", "OBJECT_ID": "2014-033B", "EPOCH": "2025-12-09T12:20:46.974048", "MEAN_MOTION": 14.87462688, "ECCENTRICITY": 0.0023026, "INCLINATION": 97.5414, "RA_OF_ASC_NODE": 172.5573, "ARG_OF_PERICENTER": 211.6573, "MEAN_ANOMALY": 148.326, "EPHEMERIS_TYPE": 0, "CLASSIFICATION_TYPE": "U", "NORAD_CAT_ID": 40011, "ELEMENT_SET_NO": 999, "REV_AT_EPOCH": 62060, "BSTAR": 0.00026168, "MEAN_MOTION_DOT": 2.329e-05, "MEAN_MOTION_DDOT": 0}, "tle": {"line1": "1 40011U 14033B   25343.51443257  .00002329  00000+0  26168-3 0  9996", "line2": "2 40011  97.5414 172.5573 0023026 211.6573 148.3260 14.87462688620608"}}, "geometry": {"type": "Point", "coordinates": [-176.72209451460344, -54.08323044688111]}}, {"type": "Feature", "properties": {"norad_id": 40013, "name": "DEIMOS-2", "group": "resource", "lat": 41.821173500591726, "lon": -147.26132930799528, "alt_km": 584.927787249736, "timestamp": "2025-12-09T16:56:36.237184+00:00", "meta": {"OBJECT_NAME": "DEIMOS-2", "OBJECT_ID": "2014-033D", "EPOCH": "2025-12-09T11:55:44.442624", "MEAN_MOTION": 14.92950025, "ECCENTRICITY": 0.000104, "INCLINATION": 97.6066, "RA_OF_ASC_NODE": 219.4042, "ARG_OF_PERICENTER": 92.7107, "MEAN_ANOMALY": 267.4231, "EPHEMERIS_TYPE": 0, "CLASSIFICATION_TYPE": "U", "NORAD_CAT_ID": 40013, "ELEMENT_SET_NO": 999, "REV_AT_EPOCH": 60941, "BSTAR": 0.00016158, "MEAN_MOTION_DOT": 1.623e-05, "MEAN_MOTION_DDOT": 0}, "tle": {"line1": "1 40013U 14033D   25343.49704216  .00001623  00000+0  16158-3 0  9994", "line2": "2 40013  97.6066 219.4042 0001040  92.7107 267.4231 14.92950025609419"}}, "geometry": {"type": "Point", "coordinates": [-147.26132930799528, 41.821173500591726]}}, {"type": "Feature", "properties": {"norad_id": 40015, "name": "HODOYOSHI-3", "group": "resource", "lat": -77.12192394248373, "lon": -66.16921219394594, "alt_km": 599.3390621412309, "timestamp": "2025-12-09T16:56:36.237195+00:00", "meta": {"OBJECT_NAME": "HODOYOSHI-3", "OBJECT_ID": "2014-033F", "EPOCH": "2025-12-09T10:55:26.573088", "MEAN_MOTION": 14.84790415, "ECCENTRICITY": 0.0031813, "INCLINATION": 97.62, "RA_OF_ASC_NODE": 149.4332, "ARG_OF_PERICENTER": 259.2155, "MEAN_ANOMALY": 100.5478, "EPHEMERIS_TYPE": 0, "CLASSIFICATION_TYPE": "U", "NORAD_CAT_ID": 40015, "ELEMENT_SET_NO": 999, "REV_AT_EPOCH": 61946, "BSTAR": 0.00035673, "MEAN_MOTION_DOT": 3.002e-05, "MEAN_MOTION_DDOT": 0}, "tle": {"line1": "1 40015U 14033F   25343.45516867  .00003002  00000+0  35673-3 0  9991", "line2": "2 40015  97.6200 149.4332 0031813 259.2155 100.5478 14.84790415619461"}}, "geometry": {"type": "Point", "coordinates": [-66.16921219394594, -77.12192394248373]}}, {"type": "Feature", "properties": {"norad_id": 40053, "name": "SPOT 7", "group": "resource", "lat": -63.54388904983186, "lon": -150.75845656154146, "alt_km": 699.016514238926, "timestamp": "2025-12-09T16:56:36.237206+00:00", "meta": {"OBJECT_NAME": "SPOT 7", "OBJECT_ID": "2014-034A", "EPOCH": "2025-12-09T12:32:19.470048", "MEAN_MOTION": 14.60728212, "ECCENTRICITY": 0.0001542, "INCLINATION": 98.0906, "RA_OF_ASC_NODE": 45.6721, "ARG_OF_PERICENTER": 89.1368, "MEAN_ANOMALY": 271.0009, "EPHEMERIS_TYPE": 0, "CLASSIFICATION_TYPE": "U", "NORAD_CAT_ID": 40053, "ELEMENT_SET_NO": 999, "REV_AT_EPOCH": 60944, "BSTAR": 0.00023208, "MEAN_MOTION_DOT": 1.086e-05, "MEAN_MOTION_DDOT": 0}, "tle": {"line1": "1 40053U 14034A   25343.52244757  .00001086  00000+0  23208-3 0  9999", "line2": "2 40053  98.0906  45.6721 0001542  89.1368 271.0009 14.60728212609443"}}, "geometry": {"type": "Point", "coordinates": [-150.75845656154146, -63.54388904983186]}}, {"type": "Feature", "properties": {"norad_id": 40072, "name": "SKYSAT-B", "group": "resource", "lat": -68.12302142777062, "lon": 85.76628810200282, "alt_km": 613.6270952139466, "timestamp": "2025-12-09T16:56:36.237217+00:00", "meta": {"OBJECT_NAME": "SKYSAT-B", "OBJECT_ID": "2014-037D", "EPOCH": "2025-12-09T09:21:57.796128", "MEAN_MOTION": 14.87308261, "ECCENTRICITY": 0.0005882, "INCLINATION": 98.3607, "RA_OF_ASC_NODE": 286.9193, "ARG_OF_PERICENTER": 160.2114, "MEAN_ANOMALY": 199.933, "EPHEMERIS_TYPE": 0, "CLASSIFICATION_TYPE": "U", "NORAD_CAT_ID": 40072, "ELEMENT_SET_NO": 999, "REV_AT_EPOCH": 61774, "BSTAR": 0.00037796, "MEAN_MOTION_DOT": 3.351e-05, "MEAN_MOTION_DDOT": 0}, "tle": {"line1": "1 40072U 14037D   25343.39025227  .00003351  00000+0  37796-3 0  9991", "line2": "2 40072  98.3607 286.9193 0005882 160.2114 199.9330 14.87308261617743"}}, "geometry": {"type": "Point", "coordinates": [85.76628810200282, -68.12302142777062]}}]}